COSMOS 2426 (717)       
1 29671U 06062B   20003.54835131 -.00000019  00000-0  10000-3 0  9999
2 29671  65.0316 273.5195 0019756 173.7995 322.1390  2.12962192101364
COSMOS 2433 (720)       
1 32275U 07052A   20003.30228211 -.00000042  00000-0  10000-3 0  9998
2 32275  65.9264  34.4594 0005250 250.5516 112.0021  2.13104378 94872
COSMOS 2432 (719)       
1 32276U 07052B   20003.07942140 -.00000044  00000-0  10000-3 0  9999
2 32276  65.9390  34.5524 0011008 317.9526 184.1933  2.13103567 94864
COSMOS 2434 (721)       
1 32393U 07065A   20002.85395962 -.00000020  00000-0  00000+0 0  9991
2 32393  64.6377 272.1378 0002419  80.6288 185.3970  2.13102976 93560
COSMOS 2436 (723)       
1 32395U 07065C   20002.90410738 -.00000020  00000-0  10000-3 0  9993
2 32395  64.6473 272.1846 0015426 338.7515  80.6871  2.13280857 93507
COSMOS 2456 (730)       
1 36111U 09070A   20002.91101561  .00000076  00000-0  00000+0 0  9998
2 36111  64.2144 151.7927 0002649 352.0211 131.1395  2.13102783 78232
COSMOS 2457 (733)       
1 36112U 09070B   20003.31114436  .00000076  00000-0  00000+0 0  9999
2 36112  64.1987 151.6769 0006763 149.3251  44.8747  2.13101489 78246
COSMOS 2459 (731)       
1 36400U 10007A   20002.78660313 -.00000046  00000-0  10000-3 0  9994
2 36400  65.8309  33.4687 0025260 344.4973 197.2988  2.13105043 76585
COSMOS 2461 (735)       
1 36401U 10007B   20003.37138416 -.00000042  00000-0  10000-3 0  9991
2 36401  65.8241  33.4186 0004416  56.0410 124.3658  2.13102058 76596
COSMOS 2460 (732)       
1 36402U 10007C   20002.85891624 -.00000045  00000-0  10000-3 0  9994
2 36402  65.8133  33.3983 0002321 246.9024 299.8177  2.13101367 76580
COSMOS 2464 (736)       
1 37139U 10041C   20002.68427238 -.00000020  00000-0  00000-0 0  9996
2 37139  64.2387 271.6667 0026753   9.5371 351.1379  2.13100643 72657
COSMOS 2474 (742)       
1 37829U 11055A   20001.82914683  .00000076  00000-0  00000+0 0  9997
2 37829  64.5349 152.7849 0008012 240.2185 348.4683  2.13101822 64209
COSMOS 2476 (744)       
1 37867U 11064A   20003.44664024  .00000078  00000-0  00000+0 0  9992
2 37867  64.5146 152.7773 0017571 233.1172 202.6453  2.13101871 63590
COSMOS 2477 (745)       
1 37868U 11064B   20003.07629420  .00000079  00000-0  00000+0 0  9994
2 37868  64.5233 152.8447 0015132 234.0645  96.1767  2.13101701 63533
COSMOS 2475 (743)       
1 37869U 11064C   20002.65956966  .00000078  00000-0  00000-0 0  9996
2 37869  64.5310 152.8587 0018646 260.1678  67.6521  2.13101880 63533
COSMOS 2485 (747)       
1 39155U 13019A   20001.94322340  .00000077  00000-0  00000+0 0  9990
2 39155  64.6832 153.0611 0018206 228.4813 178.5681  2.13101825 52035
COSMOS 2492 (754)       
1 39620U 14012A   20002.70933593 -.00000047  00000-0  10000-3 0  9997
2 39620  65.7042  33.2096 0014396 316.7781 353.0920  2.13103267 44998
COSMOS 2500 (755)       
1 40001U 14032A   20002.90722795 -.00000045  00000-0  00000+0 0  9999
2 40001  65.6439  33.1294 0008189 217.3957 105.2162  2.13102471 43210
COSMOS 2501 (702K)      
1 40315U 14075A   20002.87249145 -.00000021  00000-0  00000+0 0  9997
2 40315  63.9566 272.6674 0015725 209.9978 242.2805  2.13098436 39627
COSMOS 2514 (751)       
1 41330U 16008A   20002.64031764 -.00000048  00000-0  00000+0 0  9993
2 41330  65.4468  33.0535 0011871 221.8478  78.1059  2.13102955 30376
COSMOS 2516 (753)       
1 41554U 16032A   20002.63409810 -.00000022  00000-0  00000+0 0  9990
2 41554  64.1811 272.6995 0012182 223.8530 321.9754  2.13101734 27988
COSMOS 2522 (752)       
1 42939U 17055A   20003.39779889 -.00000019  00000-0  00000+0 0  9990
2 42939  64.4116 272.8058 0007656 255.7444  22.5077  2.13102019 17750
COSMOS 2527 (756)       
1 43508U 18053A   20003.46201649  .00000079  00000-0  00000+0 0  9999
2 43508  64.8461 152.8217 0005978 214.9700 144.1196  2.13102561 12043
COSMOS 2529 (757)       
1 43687U 18086A   20003.15077993 -.00000020  00000-0  00000+0 0  9999
2 43687  64.6249 272.8858 0010561 276.1730 128.2251  2.13102052  9062
COSMOS 2534 (758)       
1 44299U 19030A   20002.67903458 -.00000021  00000-0  00000+0 0  9990
2 44299  64.6943 272.7050 0014049 292.5794 245.0382  2.13101932  4696
